NORAD_CAT_ID,OBJECT_NAME,OBJECT_TYPE,EPOCH,MEAN_MOTION,ECCENTRICITY,INCLINATION,RA_OF_ASC_NODE,ARG_OF_PERICENTER,MEAN_ANOMALY,BSTAR,MEAN_MOTION_DOT,MEAN_MOTION_DDOT,TLE_LINE0,TLE_LINE1,TLE_LINE2,SEMIMAJOR_AXIS,PERIOD,APOGEE,PERIGEE,DECAYED
52580.0,STARLINK-3919,PAYLOAD,2023-04-04 11:38:54,15.08839112,0.0003126,53.2139,258.4498,87.3108,272.8242,0.00021215,3.089e-05,0.0,0 STARLINK-3919,1 52580U 22051AW  23094.48535341  .00003089  00000-0  21215-3 0  9995,2 52580  53.2139 258.4498 0003126  87.3108 272.8242 15.08839112 49888,6917.883,95.438,541.911,537.586,0.0
52580.0,STARLINK-3919,PAYLOAD,2023-04-04 22:46:49,15.08509968,0.0001236,53.2158,256.3709,19.159,340.9448,-0.0061894,-0.00096597,0.0,0 STARLINK-3919,1 52580U 22051AW  23094.94918380 -.00096597  00000-0 -61894-2 0  9998,2 52580  53.2158 256.3709 0001236  19.1590 340.9448 15.08509968 49955,6918.889,95.458,541.61,539.899,0.0
52580.0,STARLINK-3919,PAYLOAD,2023-04-05 14:41:04,15.0825157,0.000236,53.2118,253.3979,141.3783,218.7378,-0.0071798,-0.00111007,0.0,0 STARLINK-3919,1 52580U 22051AW  23095.61185834 -.00111007  00000-0 -71798-2 0  9991,2 52580  53.2118 253.3979 0002360 141.3783 218.7378 15.08251570 49988,6919.68,95.475,543.178,539.912,0.0
52580.0,STARLINK-3919,PAYLOAD,2023-04-05 17:51:57,15.08238822,0.0001001,53.2128,252.8021,108.2578,251.8523,-0.006463,-0.00100062,0.0,0 STARLINK-3919,1 52580U 22051AW  23095.74441869 -.00100062  00000-0 -64630-2 0  9994,2 52580  53.2128 252.8021 0001001 108.2578 251.8523 15.08238822 50073,6919.719,95.476,542.276,540.891,0.0
52580.0,STARLINK-3919,PAYLOAD,2023-04-06 09:46:14,15.08227963,0.0001827,53.215,249.8311,80.338,279.7818,-0.002247,-0.00035283,0.0,0 STARLINK-3919,1 52580U 22051AW  23096.40711209 -.00035283  00000-0 -22470-2 0  9994,2 52580  53.2150 249.8311 0001827  80.3380 279.7818 15.08227963 50174,6919.752,95.476,542.881,540.353,0.0
52580.0,STARLINK-3919,PAYLOAD,2023-04-07 03:15:40,15.085479,0.0001365,53.2148,246.5602,95.9876,264.1271,0.0072964,0.00116828,0.0,0 STARLINK-3919,1 52580U 22051AW  23097.13588768  .00116828  00000-0  72964-2 0  9993,2 52580  53.2148 246.5602 0001365  95.9876 264.1271 15.08547900 50286,6918.773,95.456,541.583,539.694,0.0
52580.0,STARLINK-3919,PAYLOAD,2023-04-07 09:37:16,15.0860225,0.0001274,53.2159,245.3697,88.2119,271.9019,0.0068372,0.00109507,0.0,0 STARLINK-3919,1 52580U 22051AW  23097.40088367  .00109507  00000-0  68372-2 0  9997,2 52580  53.2159 245.3697 0001274  88.2119 271.9019 15.08602250 50256,6918.607,95.453,541.354,539.591,0.0
52580.0,STARLINK-3919,PAYLOAD,2023-04-07 20:45:00,15.08693528,0.0001467,53.2156,243.291,74.0647,286.0507,0.0056586,0.00090564,0.0,0 STARLINK-3919,1 52580U 22051AW  23097.86458909  .00090564  00000-0  56586-2 0  9996,2 52580  53.2156 243.2910 0001467  74.0647 286.0507 15.08693528 50393,6918.328,95.447,541.208,539.178,0.0
52580.0,STARLINK-3919,PAYLOAD,2023-04-08 09:28:06,15.08757538,0.0001427,53.2165,240.9123,68.2788,291.8356,0.0033557,0.00053402,0.0,0 STARLINK-3919,1 52580U 22051AW  23098.39451718  .00053402  00000-0  33557-2 0  9999,2 52580  53.2165 240.9123 0001427  68.2788 291.8356 15.08757538 50477,6918.132,95.443,540.985,539.01,0.0
52580.0,STARLINK-3919,PAYLOAD,2023-04-08 20:35:44,15.08841588,0.0001438,53.217,238.8281,101.8871,258.2283,0.0010746,0.00016856,0.0,0 STARLINK-3919,1 52580U 22051AW  23098.85815859  .00016856  00000-0  10746-2 0  9997,2 52580  53.2170 238.8281 0001438 101.8871 258.2283 15.08841588 50546,6917.876,95.437,540.735,538.746,0.0
52580.0,STARLINK-3919,PAYLOAD,2023-04-09 02:57:17,15.08834191,0.0001389,53.2157,237.6411,76.8983,283.2164,9.4264e-05,1.212e-05,0.0,0 STARLINK-3919,1 52580U 22051AW  23099.12311886  .00001212  00000-0  94264-4 0  9998,2 52580  53.2157 237.6411 0001389  76.8983 283.2164 15.08834191 50585,6917.898,95.438,540.724,538.802,0.0
52580.0,STARLINK-3919,PAYLOAD,2023-04-09 09:18:50,15.08836613,0.0001622,53.2164,236.4528,63.6954,296.4204,0.0001107,1.474e-05,0.0,0 STARLINK-3919,1 52580U 22051AW  23099.38807984  .00001474  00000-0  11070-3 0  9998,2 52580  53.2164 236.4528 0001622  63.6954 296.4204 15.08836613 50550,6917.891,95.438,540.878,538.634,0.0
52580.0,STARLINK-3919,PAYLOAD,2023-04-09 18:51:08,15.0885206,0.000147,53.2148,234.6658,70.9637,289.1514,0.0004315,6.588e-05,0.0,0 STARLINK-3919,1 52580U 22051AW  23099.78551424  .00006588  00000-0  43150-3 0  9992,2 52580  53.2148 234.6658 0001470  70.9637 289.1514 15.08852060 50687,6917.844,95.437,540.725,538.692,0.0
52580.0,STARLINK-3919,PAYLOAD,2023-04-10 10:44:59,15.08846387,9.32e-05,53.2165,231.6917,75.5267,284.5828,0.00036885,5.588e-05,0.0,0 STARLINK-3919,1 52580U 22051AW  23100.44791493  .00005588  00000-0  36885-3 0  9996,2 52580  53.2165 231.6917 0000932  75.5267 284.5828 15.08846387 50786,6917.861,95.437,540.371,539.081,0.0
52580.0,STARLINK-3919,PAYLOAD,2023-04-10 18:41:55,15.08859256,0.000148,53.2163,230.2051,79.5514,280.5645,0.00079917,0.0001246,0.0,0 STARLINK-3919,1 52580U 22051AW  23100.77911204  .00012460  00000-0  79917-3 0  9996,2 52580  53.2163 230.2051 0001480  79.5514 280.5645 15.08859256 50766,6917.822,95.436,540.71,538.663,0.0
52580.0,STARLINK-3919,PAYLOAD,2023-04-11 12:11:09,15.08848297,0.0001387,53.2159,226.9344,87.9147,272.2004,0.00063858,9.892e-05,0.0,0 STARLINK-3919,1 52580U 22051AW  23101.50775172  .00009892  00000-0  63858-3 0  9992,2 52580  53.2159 226.9344 0001387  87.9147 272.2004 15.08848297 50949,6917.855,95.437,540.68,538.761,0.0
52580.0,STARLINK-3919,PAYLOAD,2023-04-12 12:01:56,15.0884077,0.0001689,53.2183,222.4763,108.8764,251.2412,-1.0798e-06,-3.05e-06,0.0,0 STARLINK-3919,1 52580U 22051AW  23102.50135192 -.00000305  00000-0 -10798-5 0  9994,2 52580  53.2183 222.4763 0001689 108.8764 251.2412 15.08840770 51023,6917.878,95.438,540.911,538.575,0.0
52580.0,STARLINK-3919,PAYLOAD,2023-04-13 00:45:01,15.08850946,6.48e-05,53.2162,220.095,74.0053,286.1011,0.00030274,4.535e-05,0.0,0 STARLINK-3919,1 52580U 22051AW  23103.03126714  .00004535  00000-0  30274-3 0  9999,2 52580  53.2162 220.0950 0000648  74.0053 286.1011 15.08850946 51108,6917.847,95.437,540.16,539.264,0.0
52580.0,STARLINK-3919,PAYLOAD,2023-04-14 11:43:31,15.08837353,0.000132,53.2181,213.5561,85.4742,274.6401,0.00010299,1.351e-05,0.0,0 STARLINK-3919,1 52580U 22051AW  23104.48855713  .00001351  00000-0  10299-3 0  9995,2 52580  53.2181 213.5561 0001320  85.4742 274.6401 15.08837353 51329,6917.888,95.438,540.667,538.84,0.0
52580.0,STARLINK-3919,PAYLOAD,2023-04-15 13:09:41,15.08849982,0.0001374,53.215,208.797,75.9093,284.2052,0.00018869,2.717e-05,0.0,0 STARLINK-3919,1 52580U 22051AW  23105.54839312  .00002717  00000-0  18869-3 0  9998,2 52580  53.2150 208.7970 0001374  75.9093 284.2052 15.08849982 51552,6917.85,95.437,540.665,538.764,0.0
52580.0,STARLINK-3919,PAYLOAD,2023-04-16 00:17:23,15.08843019,0.0001165,53.213,206.7176,44.1978,315.9107,0.0003844,5.836e-05,0.0,0 STARLINK-3919,1 52580U 22051AW  23106.01207682  .00005836  00000-0  38440-3 0  9992,2 52580  53.2130 206.7176 0001165  44.1978 315.9107 15.08843019 51620,6917.871,95.437,540.542,538.93,0.0
52580.0,STARLINK-3919,PAYLOAD,2023-04-16 13:00:28,15.08836397,0.0001411,53.2161,204.3351,78.1139,282.0011,6.0789e-05,6.8e-06,0.0,0 STARLINK-3919,1 52580U 22051AW  23106.54200067  .00000680  00000-0  60789-4 0  9994,2 52580  53.2161 204.3351 0001411  78.1139 282.0011 15.08836397 51633,6917.891,95.438,540.733,538.78,0.0
52580.0,STARLINK-3919,PAYLOAD,2023-04-16 16:11:14,15.08841342,0.0001189,53.2155,203.7376,94.818,265.2948,0.0001895,2.729e-05,0.0,0 STARLINK-3919,1 52580U 22051AW  23106.67447820  .00002729  00000-0  18950-3 0  9996,2 52580  53.2155 203.7376 0001189  94.8180 265.2948 15.08841342 51659,6917.876,95.437,540.564,538.919,0.0
52580.0,STARLINK-3919,PAYLOAD,2023-04-17 12:51:16,15.08843546,0.0001459,53.2158,199.8743,83.2272,276.8886,0.00036776,5.57e-05,0.0,0 STARLINK-3919,1 52580U 22051AW  23107.53560326  .00005570  00000-0  36776-3 0  9992,2 52580  53.2158 199.8743 0001459  83.2272 276.8886 15.08843546 51780,6917.87,95.437,540.744,538.725,0.0
52580.0,STARLINK-3919,PAYLOAD,2023-04-17 16:02:02,15.08846156,0.0001466,53.2156,199.2778,91.4153,268.7007,0.00063827,9.886e-05,0.0,0 STARLINK-3919,1 52580U 22051AW  23107.66808345  .00009886  00000-0  63827-3 0  9993,2 52580  53.2156 199.2778 0001466  91.4153 268.7007 15.08846156 51805,6917.862,95.437,540.741,538.712,0.0
52580.0,STARLINK-3919,PAYLOAD,2023-04-18 09:31:16,15.08845239,0.0001521,53.2162,196.0096,85.3461,274.7705,0.00029848,4.466e-05,0.0,0 STARLINK-3919,1 52580U 22051AW  23108.39672422  .00004466  00000-0  29848-3 0  9993,2 52580  53.2162 196.0096 0001521  85.3461 274.7705 15.08845239 51911,6917.864,95.437,540.782,538.677,0.0
52580.0,STARLINK-3919,PAYLOAD,2023-04-18 15:52:49,15.08857914,0.0001495,53.2164,194.8191,82.2853,277.8309,0.00070935,0.00011025,0.0,0 STARLINK-3919,1 52580U 22051AW  23108.66168014  .00011025  00000-0  70935-3 0  9992,2 52580  53.2164 194.8191 0001495  82.2853 277.8309 15.08857914 52026,6917.826,95.436,540.725,538.656,0.0
52580.0,STARLINK-3919,PAYLOAD,2023-04-19 09:22:03,15.08843317,0.0001578,53.2162,191.5486,97.5591,262.558,0.00040303,6.133e-05,0.0,0 STARLINK-3919,1 52580U 22051AW  23109.39032256  .00006133  00000-0  40303-3 0  9991,2 52580  53.2162 191.5486 0001578  97.5591 262.5580 15.08843317 52063,6917.87,95.437,540.827,538.644,0.0
52580.0,STARLINK-3919,PAYLOAD,2023-04-19 12:32:50,15.08846181,0.0001645,53.216,190.9535,93.8973,266.2207,0.00048871,7.5e-05,0.0,0 STARLINK-3919,1 52580U 22051AW  23109.52280224  .00007500  00000-0  48871-3 0  9993,2 52580  53.2160 190.9535 0001645  93.8973 266.2207 15.08846181 52088,6917.861,95.437,540.864,538.589,0.0
52580.0,STARLINK-3919,PAYLOAD,2023-04-20 09:12:50,15.08838286,0.0001558,53.217,187.0885,100.9405,259.1763,-1.6779e-05,-5.55e-06,0.0,0 STARLINK-3919,1 52580U 22051AW  23110.38392342 -.00000555  00000-0 -16779-4 0  9992,2 52580  53.2170 187.0885 0001558 100.9405 259.1763 15.08838286 52217,6917.886,95.438,540.828,538.673,0.0
